OBJECT_NAME,OBJECT_ID,EPOCH,MEAN_MOTION,ECCENTRICITY,INCLINATION,RA_OF_ASC_NODE,ARG_OF_PERICENTER,MEAN_ANOMALY,EPHEMERIS_TYPE,CLASSIFICATION_TYPE,NORAD_CAT_ID,ELEMENT_SET_NO,REV_AT_EPOCH,BSTAR,MEAN_MOTION_DOT,MEAN_MOTION_DDOT
STARLINK-37706,2026-110D,2026-06-14T06:00:02.000160,15.33431332,.00016334,97.2844,1.6612,90.9262,355.7939,0,U,69127,999,518,-.58995071E-3,-.19065E-3,0
STARLINK-37723,2026-110E,2026-06-14T06:00:02.000160,15.33429632,.00013965,97.2842,1.6680,94.1921,7.5403,0,U,69128,999,518,-.54099763E-3,-.17492E-3,0
STARLINK-37720,2026-110F,2026-06-14T02:58:32.517408,15.49205605,.00016059,97.2840,1.3338,92.8729,267.2706,0,U,69129,999,512,.69223213E-3,.37761E-3,0
STARLINK-37533,2026-110G,2026-06-14T06:00:02.000160,15.33428294,.00014816,97.2840,1.6887,94.9939,51.7487,0,U,69130,999,518,-.47661518E-3,-.15423E-3,0
STARLINK-37530,2026-110H,2026-06-14T06:00:02.000160,15.33433850,.00018128,97.2844,1.6948,89.3979,72.3380,0,U,69131,999,518,-.80073657E-3,-.2583E-3,0
STARLINK-37660,2026-110J,2026-06-14T02:44:29.836608,15.49208785,.0000628,97.2833,1.5002,43.6057,316.5244,0,U,69132,999,513,.52298066E-3,.28475E-3,0
STARLINK-37633,2026-110K,2026-06-14T02:36:29.456928,15.49236250,.00008801,97.2831,1.5080,74.4680,285.6668,0,U,69133,999,513,.10594052E-2,.58049E-3,0
STARLINK-37361,2026-110L,2026-06-14T06:00:02.000160,15.34443744,.0001971,97.2844,1.7166,66.2964,139.9420,0,U,69134,999,518,-.499503E-1,-.1502031E-1,0
STARLINK-37372,2026-110M,2026-06-14T07:10:34.445856,15.49195977,.00012774,97.2831,1.7092,85.6971,274.4426,0,U,69135,999,516,.80260664E-3,.43815E-3,0
STARLINK-37531,2026-110N,2026-06-14T06:00:02.000160,15.40747260,.00022845,97.2849,1.7253,86.9711,132.2869,0,U,69136,999,518,-.67462541E-1,-.2445018E-1,0
STARLINK-37662,2026-110P,2026-06-14T07:10:05.451744,15.49216158,.00014391,97.2831,1.7098,72.9474,287.1935,0,U,69137,999,516,.57978864E-3,.31599E-3,0
STARLINK-37658,2026-110Q,2026-06-14T06:22:43.239936,15.49204527,.00000838,97.2831,1.6013,141.4747,218.6510,0,U,69138,999,515,.79708232E-3,.43524E-3,0
STARLINK-37659,2026-110R,2026-06-14T06:33:48.278880,15.49208511,.00011075,97.2840,1.5914,97.8526,262.2851,0,U,69139,999,515,.11173939E-2,.61197E-3,0
STARLINK-37653,2026-110S,2026-06-14T06:37:22.212192,15.49188073,.00034533,97.2844,1.5872,84.3117,275.8528,0,U,69140,999,515,.9938664E-3,.54345E-3,0
STARLINK-37654,2026-110T,2026-06-14T07:07:40.284192,15.49169884,.00020005,97.2829,1.7120,84.9831,275.1648,0,U,69141,999,516,.64982896E-3,.35388E-3,0
STARLINK-37655,2026-110U,2026-06-14T06:00:02.000160,15.48049577,.0002354,97.2842,1.7108,105.3783,103.9282,0,U,69142,999,518,-.60195316E-1,-.2755013E-1,0
STARLINK-37636,2026-110V,2026-06-14T06:00:02.000160,15.38215880,.00019255,97.2840,1.7744,100.5481,233.6956,0,U,69143,999,518,-.7218603E-1,-.2410521E-1,0
STARLINK-37638,2026-110W,2026-06-14T06:00:02.000160,15.38350736,.00018844,97.2842,1.7802,107.0494,241.9062,0,U,69144,999,518,-.73929244E-1,-.2471722E-1,0
STARLINK-37657,2026-110X,2026-06-14T07:07:58.537920,15.49230666,.00017605,97.2829,1.7121,87.8506,272.2947,0,U,69145,999,516,.21680237E-2,.119808E-2,0
STARLINK-37639,2026-110Y,2026-06-14T06:00:02.000160,15.39304134,.00017835,97.2832,1.7928,101.3493,274.1390,0,U,69146,999,523,-.69986568E-1,-.2420729E-1,0
STARLINK-37661,2026-110Z,2026-06-14T02:59:47.579136,15.49206146,.00015489,97.2838,1.4869,87.9835,272.1593,0,U,69147,999,513,.41180923E-3,.22384E-3,0
STARLINK-37395,2026-111A,2026-06-14T06:00:02.000160,15.69145153,.00005755,53.1592,166.4969,91.7467,291.8765,0,U,69148,999,507,-.23679392E-1,-.2455443E-1,0
STARLINK-37346,2026-111B,2026-06-14T06:00:02.000160,15.53625314,.00013808,53.1604,166.8741,84.5884,113.2028,0,U,69149,999,507,-.44147511E-1,-.2539386E-1,0
STARLINK-37332,2026-111C,2026-06-14T06:00:02.000160,15.49292091,.00012576,53.1585,167.1878,85.7531,317.2731,0,U,69150,999,507,.26606885E-3,.14368E-3,0
STARLINK-37297,2026-111D,2026-06-14T06:00:02.000160,15.70957065,.00008454,53.1590,166.4462,83.5614,324.9048,0,U,69151,999,507,-.23419791E-1,-.2599171E-1,0
STARLINK-37317,2026-111E,2026-06-14T06:00:02.000160,15.75240772,.00011111,53.1588,166.3647,71.6782,16.5165,0,U,69152,999,507,-.18791119E-1,-.2465784E-1,0
STARLINK-37374,2026-111F,2026-06-14T06:00:02.000160,15.49324080,.00009203,53.1593,167.3641,103.5342,211.8169,0,U,69153,999,507,.84476321E-3,.46841E-3,0
STARLINK-37235,2026-111G,2026-06-14T06:00:02.000160,15.49286510,.0001119,53.1585,167.6066,88.2541,107.7753,0,U,69154,999,507,.33966308E-3,.18472E-3,0
STARLINK-37329,2026-111H,2026-06-14T06:00:02.000160,15.75343145,.00010573,53.1589,166.3688,73.8366,12.5416,0,U,69155,999,507,-.19308873E-1,-.2593051E-1,0
STARLINK-37345,2026-111J,2026-06-14T06:00:02.000160,15.76992590,.00010227,53.1583,166.3421,77.4266,22.2384,0,U,69156,999,507,-.18016959E-1,-.254217E-1,0
