STARLINK-37706          
1 69127U 26110D   26165.25002315 -.00019065  00000+0 -58995-3 0  9994
2 69127  97.2844   1.6612 0001633  90.9262 355.7939 15.33431332  5181
STARLINK-37723          
1 69128U 26110E   26165.25002315 -.00017492  00000+0 -54100-3 0  9991
2 69128  97.2842   1.6680 0001396  94.1921   7.5403 15.33429632  5187
STARLINK-37720          
1 69129U 26110F   26165.12398747  .00037761  00000+0  69223-3 0  9996
2 69129  97.2840   1.3338 0001605  92.8729 267.2706 15.49205605  5121
STARLINK-37533          
1 69130U 26110G   26165.25002315 -.00015423  00000+0 -47662-3 0  9991
2 69130  97.2840   1.6887 0001481  94.9939  51.7487 15.33428294  5185
STARLINK-37530          
1 69131U 26110H   26165.25002315 -.00025830  00000+0 -80074-3 0  9999
2 69131  97.2844   1.6948 0001812  89.3979  72.3380 15.33433850  5183
STARLINK-37660          
1 69132U 26110J   26165.11423422  .00028475  00000+0  52298-3 0  9994
2 69132  97.2833   1.5002 0000628  43.6057 316.5244 15.49208785  5137
STARLINK-37633          
1 69133U 26110K   26165.10867427  .00058049  00000+0  10594-2 0  9993
2 69133  97.2831   1.5080 0000880  74.4680 285.6668 15.49236250  5130
STARLINK-37361          
1 69134U 26110L   26165.25002315 -.01502031  00000+0 -49950-1 0  9992
2 69134  97.2844   1.7166 0001971  66.2964 139.9420 15.34443744  5182
STARLINK-37372          
1 69135U 26110M   26165.29900979  .00043815  00000+0  80261-3 0  9999
2 69135  97.2831   1.7092 0001277  85.6971 274.4426 15.49195977  5166
STARLINK-37531          
1 69136U 26110N   26165.25002315 -.02445018  00000+0 -67463-1 0  9995
2 69136  97.2849   1.7253 0002284  86.9711 132.2869 15.40747260  5183
STARLINK-37662          
1 69137U 26110P   26165.29867421  .00031599  00000+0  57979-3 0  9991
2 69137  97.2831   1.7098 0001439  72.9474 287.1935 15.49216158  5162
STARLINK-37658          
1 69138U 26110Q   26165.26577824  .00043524  00000+0  79708-3 0  9999
2 69138  97.2831   1.6013 0000083 141.4747 218.6510 15.49204527  5152
STARLINK-37659          
1 69139U 26110R   26165.27347545  .00061197  00000+0  11174-2 0  9994
2 69139  97.2840   1.5914 0001107  97.8526 262.2851 15.49208511  5159
STARLINK-37653          
1 69140U 26110S   26165.27595153  .00054345  00000+0  99387-3 0  9996
2 69140  97.2844   1.5872 0003453  84.3117 275.8528 15.49188073  5152
STARLINK-37654          
1 69141U 26110T   26165.29699403  .00035388  00000+0  64983-3 0  9992
2 69141  97.2829   1.7120 0002000  84.9831 275.1648 15.49169884  5166
STARLINK-37655          
1 69142U 26110U   26165.25002315 -.02755013  00000+0 -60195-1 0  9996
2 69142  97.2842   1.7108 0002354 105.3783 103.9282 15.48049577  5183
STARLINK-37636          
1 69143U 26110V   26165.25002315 -.02410521  00000+0 -72186-1 0  9992
2 69143  97.2840   1.7744 0001925 100.5481 233.6956 15.38215880  5183
STARLINK-37638          
1 69144U 26110W   26165.25002315 -.02471722  00000+0 -73929-1 0  9999
2 69144  97.2842   1.7802 0001884 107.0494 241.9062 15.38350736  5181
STARLINK-37657          
1 69145U 26110X   26165.29720530  .00119808  00000+0  21680-2 0  9998
2 69145  97.2829   1.7121 0001760  87.8506 272.2947 15.49230666  5161
STARLINK-37639          
1 69146U 26110Y   26165.25002315 -.02420729  00000+0 -69987-1 0  9991
2 69146  97.2832   1.7928 0001783 101.3493 274.1390 15.39304134  5235
STARLINK-37661          
1 69147U 26110Z   26165.12485624  .00022384  00000+0  41181-3 0  9995
2 69147  97.2838   1.4869 0001548  87.9835 272.1593 15.49206146  5138
STARLINK-37395          
1 69148U 26111A   26165.25002315 -.02455443  00000+0 -23679-1 0  9993
2 69148  53.1592 166.4969 0000575  91.7467 291.8765 15.69145153  5077
STARLINK-37346          
1 69149U 26111B   26165.25002315 -.02539386  00000+0 -44148-1 0  9997
2 69149  53.1604 166.8741 0001380  84.5884 113.2028 15.53625314  5076
STARLINK-37332          
1 69150U 26111C   26165.25002315  .00014368  00000+0  26607-3 0  9995
2 69150  53.1585 167.1878 0001257  85.7531 317.2731 15.49292091  5070
STARLINK-37297          
1 69151U 26111D   26165.25002315 -.02599171  00000+0 -23420-1 0  9998
2 69151  53.1590 166.4462 0000845  83.5614 324.9048 15.70957065  5077
STARLINK-37317          
1 69152U 26111E   26165.25002315 -.02465784  00000+0 -18791-1 0  9996
2 69152  53.1588 166.3647 0001111  71.6782  16.5165 15.75240772  5079
STARLINK-37374          
1 69153U 26111F   26165.25002315  .00046841  00000+0  84476-3 0  9997
2 69153  53.1593 167.3641 0000920 103.5342 211.8169 15.49324080  5075
STARLINK-37235          
1 69154U 26111G   26165.25002315  .00018472  00000+0  33966-3 0  9995
2 69154  53.1585 167.6066 0001119  88.2541 107.7753 15.49286510  5079
STARLINK-37329          
1 69155U 26111H   26165.25002315 -.02593051  00000+0 -19309-1 0  9994
2 69155  53.1589 166.3688 0001057  73.8366  12.5416 15.75343145  5072
STARLINK-37345          
1 69156U 26111J   26165.25002315 -.02542170  00000+0 -18017-1 0  9996
2 69156  53.1583 166.3421 0001022  77.4266  22.2384 15.76992590  5070
